OBJECT_NAME,OBJECT_ID,EPOCH,MEAN_MOTION,ECCENTRICITY,INCLINATION,RA_OF_ASC_NODE,ARG_OF_PERICENTER,MEAN_ANOMALY,EPHEMERIS_TYPE,CLASSIFICATION_TYPE,NORAD_CAT_ID,ELEMENT_SET_NO,REV_AT_EPOCH,BSTAR,MEAN_MOTION_DOT,MEAN_MOTION_DDOT
ONEWEB-0311,2021-075Y,2026-07-17T16:45:12.129120,13.17648042,.0001682,87.9149,359.7928,81.0524,279.0798,0,U,49097,999,23764,-.53534E-4,-.8E-7,0
ONEWEB-0312,2021-075Z,2026-07-17T09:49:41.181888,13.17648607,.0002018,87.9145,359.8611,83.7603,276.3759,0,U,49098,999,23758,.57811E-4,.35E-6,0
ONEWEB-0313,2021-075AA,2026-07-17T09:56:45.500064,13.17649889,.000181,87.9144,359.8649,89.3863,270.7476,0,U,49099,999,23757,.28898E-4,.24E-6,0
ONEWEB-0314,2021-075AB,2026-07-17T09:08:21.159744,13.17651014,.0002023,87.9158,359.8474,82.2120,277.9241,0,U,49100,999,23754,.19718E-3,.89E-6,0
ONEWEB-0315,2021-075AC,2026-07-17T16:52:52.100256,13.12442655,.0001568,87.8975,344.5780,85.9599,274.1709,0,U,49101,999,23917,.12553E-2,.464E-5,0
ONEWEB-0316,2021-075AD,2026-07-17T15:52:16.604256,13.18686371,.0001979,87.9196,329.3961,99.0445,261.0911,0,U,49102,999,24122,-.71677E-4,-.15E-6,0
ONEWEB-0317,2021-075AE,2026-07-17T16:57:44.921088,13.12442162,.0002493,87.8969,344.6010,106.0600,254.0803,0,U,49103,999,23919,.10815E-2,.402E-5,0
ONEWEB-0318,2021-075AF,2026-07-17T15:47:13.342848,13.18686679,.0001788,87.9198,329.3990,93.8336,266.3000,0,U,49104,999,24118,-.14795E-4,.7E-7,0
ONEWEB-0319,2021-075AG,2026-07-17T00:23:29.792256,13.17647669,.000148,87.9145,359.9338,80.8790,279.2509,0,U,49105,999,23753,-.48552E-4,-.6E-7,0
ONEWEB-0323,2021-075AH,2026-07-17T16:30:54.470880,13.12444154,.0001579,87.8974,344.5864,79.6761,280.4545,0,U,49106,999,23855,.44208E-3,.172E-5,0
ONEWEB-0329,2021-075AJ,2026-07-17T16:59:45.951072,13.17647704,.0001928,87.9151,359.7971,88.5231,271.6121,0,U,49107,999,23760,-.16437E-4,.6E-7,0
ONEWEB-0330,2021-075AK,2026-07-17T09:47:25.659168,13.17646805,.0001999,87.9149,359.8682,89.2263,270.9098,0,U,49108,999,23760,.25386E-4,.23E-6,0
ONEWEB-0292,2021-083A,2026-07-17T17:06:23.423040,13.13469338,.0001804,87.8980,314.1633,97.6818,262.4516,0,U,49186,999,23493,.51013E-4,.31E-6,0
ONEWEB-0303,2021-083B,2026-07-17T15:42:21.475008,13.18683858,.0001806,87.9197,329.3980,94.3591,265.7747,0,U,49187,999,23399,-.23542E-4,.4E-7,0
ONEWEB-0306,2021-083C,2026-07-17T15:27:48.208608,13.18684681,.000211,87.9199,329.3891,100.9318,259.2052,0,U,49188,999,23403,-.43978E-4,-.4E-7,0
ONEWEB-0307,2021-083D,2026-07-17T16:57:51.218784,13.13468082,.0001902,87.8981,314.1620,96.5111,263.6235,0,U,49189,999,23493,.64937E-3,.25E-5,0
ONEWEB-0320,2021-083E,2026-07-16T21:44:17.558592,13.18687461,.00019393,87.9190,329.5505,99.3056,260.8295,0,U,49190,999,23389,-.64251365E-4,-.12E-6,0
ONEWEB-0321,2021-083F,2026-07-17T15:43:35.232960,13.20773066,.0002155,87.9181,268.3633,104.7539,255.3833,0,U,49191,999,24085,-.12033E-3,-.36E-6,0
ONEWEB-0322,2021-083G,2026-07-17T07:43:17.771808,13.13470291,.0002076,87.8979,314.2384,111.5594,248.5757,0,U,49192,999,23487,.79055E-3,.301E-5,0
ONEWEB-0324,2021-083H,2026-07-16T21:05:28.205088,13.18686453,.00020717,87.9200,329.5467,95.1805,264.9563,0,U,49193,999,23391,-.10761344E-4,.9E-7,0
ONEWEB-0325,2021-083J,2026-07-17T08:05:53.037024,13.18687192,.0001837,87.9190,329.4612,99.6365,260.4975,0,U,49194,999,23398,-.28812E-4,.2E-7,0
ONEWEB-0326,2021-083K,2026-07-17T08:27:57.809088,13.18686440,.000166,87.9199,329.4583,93.9502,266.1820,0,U,49195,999,23397,.15148E-4,.19E-6,0
ONEWEB-0327,2021-083L,2026-07-17T08:27:33.612768,13.18686454,.0001497,87.9190,329.4602,96.4607,263.6695,0,U,49196,999,23399,.53837E-4,.34E-6,0
ONEWEB-0328,2021-083M,2026-07-17T14:47:27.227040,13.13470294,.000206,87.8989,314.1559,96.7039,263.4324,0,U,49197,999,23489,.97351E-3,.368E-5,0
ONEWEB-0331,2021-083N,2026-07-17T15:35:05.143776,13.18684655,.0001691,87.9202,329.3933,89.6096,270.5229,0,U,49198,999,23402,-.80783E-4,-.19E-6,0
ONEWEB-0333,2021-083P,2026-07-17T07:21:21.390048,13.13470209,.0001874,87.8984,314.2406,100.1459,259.9881,0,U,49199,999,23486,.92288E-3,.35E-5,0
ONEWEB-0334,2021-083Q,2026-07-17T03:20:33.390240,13.20769995,.00025344,87.9185,268.4765,115.0899,245.0497,0,U,49200,999,24074,.25482556E-3,.117E-5,0
ONEWEB-0335,2021-083R,2026-07-17T07:14:02.458176,13.13469309,.0001821,87.8979,314.2393,95.7052,264.4285,0,U,49201,999,23487,.70636E-3,.271E-5,0
ONEWEB-0336,2021-083S,2026-07-17T13:51:22.379040,13.13468803,.0001829,87.8978,314.1795,91.8180,268.3158,0,U,49202,999,23490,-.80106E-3,-.28E-5,0
ONEWEB-0337,2021-083T,2026-07-17T14:05:48.907968,13.13469623,.0002042,87.8978,314.1830,94.4607,265.6756,0,U,49203,999,23490,-.6404E-3,-.221E-5,0
