ONEWEB-0311             
1 49097U 21075Y   26198.69805705 -.00000008  00000+0 -53534-4 0  9993
2 49097  87.9149 359.7928 0001682  81.0524 279.0798 13.17648042237649
ONEWEB-0312             
1 49098U 21075Z   26198.40950442  .00000035  00000+0  57811-4 0  9992
2 49098  87.9145 359.8611 0002018  83.7603 276.3759 13.17648607237584
ONEWEB-0313             
1 49099U 21075AA  26198.41441551  .00000024  00000+0  28898-4 0  9991
2 49099  87.9144 359.8649 0001810  89.3863 270.7476 13.17649889237570
ONEWEB-0314             
1 49100U 21075AB  26198.38080046  .00000089  00000+0  19718-3 0  9999
2 49100  87.9158 359.8474 0002023  82.2120 277.9241 13.17651014237548
ONEWEB-0315             
1 49101U 21075AC  26198.70338079  .00000464  00000+0  12553-2 0  9994
2 49101  87.8975 344.5780 0001568  85.9599 274.1709 13.12442655239172
ONEWEB-0316             
1 49102U 21075AD  26198.66130329 -.00000015  00000+0 -71677-4 0  9996
2 49102  87.9196 329.3961 0001979  99.0445 261.0911 13.18686371241223
ONEWEB-0317             
1 49103U 21075AE  26198.70676992  .00000402  00000+0  10815-2 0  9996
2 49103  87.8969 344.6010 0002493 106.0600 254.0803 13.12442162239197
ONEWEB-0318             
1 49104U 21075AF  26198.65779332  .00000007  00000+0 -14795-4 0  9998
2 49104  87.9198 329.3990 0001788  93.8336 266.3000 13.18686679241181
ONEWEB-0319             
1 49105U 21075AG  26198.01631704 -.00000006  00000+0 -48552-4 0  9997
2 49105  87.9145 359.9338 0001480  80.8790 279.2509 13.17647669237534
ONEWEB-0323             
1 49106U 21075AH  26198.68813045  .00000172  00000+0  44208-3 0  9996
2 49106  87.8974 344.5864 0001579  79.6761 280.4545 13.12444154238557
ONEWEB-0329             
1 49107U 21075AJ  26198.70817073  .00000006  00000+0 -16437-4 0  9996
2 49107  87.9151 359.7971 0001928  88.5231 271.6121 13.17647704237600
ONEWEB-0330             
1 49108U 21075AK  26198.40793587  .00000023  00000+0  25386-4 0  9998
2 49108  87.9149 359.8682 0001999  89.2263 270.9098 13.17646805237605
ONEWEB-0292             
1 49186U 21083A   26198.71277110  .00000031  00000+0  51013-4 0  9991
2 49186  87.8980 314.1633 0001804  97.6818 262.4516 13.13469338234931
ONEWEB-0303             
1 49187U 21083B   26198.65441522  .00000004  00000+0 -23542-4 0  9992
2 49187  87.9197 329.3980 0001806  94.3591 265.7747 13.18683858233997
ONEWEB-0306             
1 49188U 21083C   26198.64430797 -.00000004  00000+0 -43978-4 0  9990
2 49188  87.9199 329.3891 0002110 100.9318 259.2052 13.18684681234039
ONEWEB-0307             
1 49189U 21083D   26198.70684281  .00000250  00000+0  64937-3 0  9995
2 49189  87.8981 314.1620 0001902  96.5111 263.6235 13.13468082234930
ONEWEB-0320             
1 49190U 21083E   26197.90575878 -.00000012  00000+0 -64251-4 0  9997
2 49190  87.9190 329.5505 0001939  99.3056 260.8295 13.18687461233894
ONEWEB-0321             
1 49191U 21083F   26198.65526890 -.00000036  00000+0 -12033-3 0  9997
2 49191  87.9181 268.3633 0002155 104.7539 255.3833 13.20773066240856
ONEWEB-0322             
1 49192U 21083G   26198.32173347  .00000301  00000+0  79055-3 0  9997
2 49192  87.8979 314.2384 0002076 111.5594 248.5757 13.13470291234874
ONEWEB-0324             
1 49193U 21083H   26197.87879867  .00000009  00000+0 -10761-4 0  9993
2 49193  87.9200 329.5467 0002071  95.1805 264.9563 13.18686453233916
ONEWEB-0325             
1 49194U 21083J   26198.33741941  .00000002  00000+0 -28812-4 0  9996
2 49194  87.9190 329.4612 0001837  99.6365 260.4975 13.18687192233981
ONEWEB-0326             
1 49195U 21083K   26198.35275242  .00000019  00000+0  15148-4 0  9990
2 49195  87.9199 329.4583 0001660  93.9502 266.1820 13.18686440233978
ONEWEB-0327             
1 49196U 21083L   26198.35247237  .00000034  00000+0  53837-4 0  9998
2 49196  87.9190 329.4602 0001497  96.4607 263.6695 13.18686454233993
ONEWEB-0328             
1 49197U 21083M   26198.61628735  .00000368  00000+0  97351-3 0  9992
2 49197  87.8989 314.1559 0002060  96.7039 263.4324 13.13470294234895
ONEWEB-0331             
1 49198U 21083N   26198.64936509 -.00000019  00000+0 -80783-4 0  9994
2 49198  87.9202 329.3933 0001691  89.6096 270.5229 13.18684655234023
ONEWEB-0333             
1 49199U 21083P   26198.30649757  .00000350  00000+0  92288-3 0  9992
2 49199  87.8984 314.2406 0001874 100.1459 259.9881 13.13470209234863
ONEWEB-0334             
1 49200U 21083Q   26198.13927535  .00000117  00000+0  25483-3 0  9993
2 49200  87.9185 268.4765 0002534 115.0899 245.0497 13.20769995240749
ONEWEB-0335             
1 49201U 21083R   26198.30141734  .00000271  00000+0  70636-3 0  9993
2 49201  87.8979 314.2393 0001821  95.7052 264.4285 13.13469309234875
ONEWEB-0336             
1 49202U 21083S   26198.57734235 -.00000280  00000+0 -80106-3 0  9992
2 49202  87.8978 314.1795 0001829  91.8180 268.3158 13.13468803234901
ONEWEB-0337             
1 49203U 21083T   26198.58737162 -.00000221  00000+0 -64040-3 0  9990
2 49203  87.8978 314.1830 0002042  94.4607 265.6756 13.13469623234908
